<?xml version="1.0" encoding="UTF-8"?>
<gpx
  version="1.1"
  creator="GPSGoblin synthetic example"
  xmlns="http://www.topografix.com/GPX/1/1"
  xmlns:xsi="http://www.w3.org/2001/XMLSchema-instance"
  xsi:schemaLocation="http://www.topografix.com/GPX/1/1 http://www.topografix.com/GPX/1/1/gpx.xsd"
>
  <metadata>
    <name>Bramble Ridge loop</name>
    <desc>A synthetic activity created to demonstrate GPSGoblin.</desc>
    <copyright author="GPSGoblin">
      <license>https://creativecommons.org/publicdomain/zero/1.0/</license>
    </copyright>
  </metadata>
  <trk>
    <name>Bramble Ridge loop</name>
    <desc>Synthetic example with invented positions, elevations and times.</desc>
    <trkseg>
      <trkpt lat="54.0000" lon="-2.0000"><ele>165</ele><time>2026-06-14T09:00:00Z</time></trkpt>
      <trkpt lat="54.0006" lon="-1.9985"><ele>170</ele><time>2026-06-14T09:01:00Z</time></trkpt>
      <trkpt lat="54.0013" lon="-1.9970"><ele>178</ele><time>2026-06-14T09:02:00Z</time></trkpt>
      <trkpt lat="54.0021" lon="-1.9958"><ele>190</ele><time>2026-06-14T09:03:00Z</time></trkpt>
      <trkpt lat="54.0030" lon="-1.9950"><ele>205</ele><time>2026-06-14T09:04:00Z</time></trkpt>
      <trkpt lat="54.0040" lon="-1.9946"><ele>220</ele><time>2026-06-14T09:05:00Z</time></trkpt>
      <trkpt lat="54.0050" lon="-1.9948"><ele>238</ele><time>2026-06-14T09:06:00Z</time></trkpt>
      <trkpt lat="54.0059" lon="-1.9955"><ele>250</ele><time>2026-06-14T09:07:00Z</time></trkpt>
      <trkpt lat="54.0066" lon="-1.9966"><ele>258</ele><time>2026-06-14T09:08:00Z</time></trkpt>
      <trkpt lat="54.0070" lon="-1.9980"><ele>260</ele><time>2026-06-14T09:09:00Z</time></trkpt>
      <trkpt lat="54.0072" lon="-1.9996"><ele>255</ele><time>2026-06-14T09:10:00Z</time></trkpt>
      <trkpt lat="54.0070" lon="-2.0012"><ele>248</ele><time>2026-06-14T09:11:00Z</time></trkpt>
      <trkpt lat="54.0065" lon="-2.0027"><ele>235</ele><time>2026-06-14T09:12:00Z</time></trkpt>
      <trkpt lat="54.0058" lon="-2.0040"><ele>220</ele><time>2026-06-14T09:13:00Z</time></trkpt>
      <trkpt lat="54.0050" lon="-2.0050"><ele>205</ele><time>2026-06-14T09:14:00Z</time></trkpt>
      <trkpt lat="54.0041" lon="-2.0057"><ele>192</ele><time>2026-06-14T09:15:00Z</time></trkpt>
      <trkpt lat="54.0032" lon="-2.0059"><ele>184</ele><time>2026-06-14T09:16:00Z</time></trkpt>
      <trkpt lat="54.0023" lon="-2.0056"><ele>176</ele><time>2026-06-14T09:17:00Z</time></trkpt>
      <trkpt lat="54.0015" lon="-2.0048"><ele>170</ele><time>2026-06-14T09:18:00Z</time></trkpt>
      <trkpt lat="54.0008" lon="-2.0037"><ele>166</ele><time>2026-06-14T09:19:00Z</time></trkpt>
      <trkpt lat="54.0003" lon="-2.0023"><ele>164</ele><time>2026-06-14T09:20:00Z</time></trkpt>
      <trkpt lat="54.0000" lon="-2.0008"><ele>165</ele><time>2026-06-14T09:21:00Z</time></trkpt>
      <trkpt lat="54.0000" lon="-2.0000"><ele>165</ele><time>2026-06-14T09:22:00Z</time></trkpt>
    </trkseg>
  </trk>
</gpx>
